STARLINK-2022           
1 47643U 21012Z   24296.90921364 -.00000074  00000+0  13897-4 0  9990
2 47643  53.0526 148.6893 0001441  85.4470 274.6684 15.06399611204480
